{
    "links": {
        "self": "http://www.neowsapp.com/rest/v1/neo/3701866?api_key=iIulBulltgU6a56xZRHN4H3l9WmuAYTsLGpBGhQ2"
    },
    "id": "3701866",
    "neo_reference_id": "3701866",
    "name": "(2014 XA7)",
    "designation": "2014 XA7",
    "nasa_jpl_url": "http://ssd.jpl.nasa.gov/sbdb.cgi?sstr=3701866",
    "absolute_magnitude_h": 20.9,
    "estimated_diameter": {
        "kilometers": {
            "estimated_diameter_min": 0.1756123185,
            "estimated_diameter_max": 0.3926810818
        },
        "meters": {
            "estimated_diameter_min": 175.6123184804,
            "estimated_diameter_max": 392.6810818086
        },
        "miles": {
            "estimated_diameter_min": 0.1091204019,
            "estimated_diameter_max": 0.2440006365
        },
        "feet": {
            "estimated_diameter_min": 576.1559189633,
            "estimated_diameter_max": 1288.3238004408
        }
    },
    "is_potentially_hazardous_asteroid": false,
    "close_approach_data": [
        {
            "close_approach_date": "1995-12-28",
            "close_approach_date_full": "1995-Dec-28 07:26",
            "epoch_date_close_approach": 820135560000,
            "relative_velocity": {
                "kilometers_per_second": "13.6653389038",
                "kilometers_per_hour": "49195.2200536141",
                "miles_per_hour": "30567.9965938693"
            },
            "miss_distance": {
                "astronomical": "0.3670978191",
                "lunar": "142.8010516299",
                "kilometers": "54917051.819005317",
                "miles": "34123873.6552826946"
            },
            "orbiting_body": "Earth"
        },
        {
            "close_approach_date": "2014-12-28",
            "close_approach_date_full": "2014-Dec-28 04:41",
            "epoch_date_close_approach": 1419741660000,
            "relative_velocity": {
                "kilometers_per_second": "13.6311258246",
                "kilometers_per_hour": "49072.0529685676",
                "miles_per_hour": "30491.4653570524"
            },
            "miss_distance": {
                "astronomical": "0.3640755346",
                "lunar": "141.6253829594",
                "kilometers": "54464924.495271302",
                "miles": "33842934.7636238876"
            },
            "orbiting_body": "Earth"
        },
        {
            "close_approach_date": "2033-12-28",
            "close_approach_date_full": "2033-Dec-28 09:41",
            "epoch_date_close_approach": 2019375660000,
            "relative_velocity": {
                "kilometers_per_second": "13.6172404167",
                "kilometers_per_hour": "49022.0655002755",
                "miles_per_hour": "30460.4050882129"
            },
            "miss_distance": {
                "astronomical": "0.3527754522",
                "lunar": "137.2296509058",
                "kilometers": "52774456.237406814",
                "miles": "32792526.4962654732"
            },
            "orbiting_body": "Earth"
        },
        {
            "close_approach_date": "2052-12-28",
            "close_approach_date_full": "2052-Dec-28 14:29",
            "epoch_date_close_approach": 2619008940000,
            "relative_velocity": {
                "kilometers_per_second": "13.6017383996",
                "kilometers_per_hour": "48966.2582386046",
                "miles_per_hour": "30425.728626093"
            },
            "miss_distance": {
                "astronomical": "0.3429543064",
                "lunar": "133.4092251896",
                "kilometers": "51305233.744767368",
                "miles": "31879593.9725829584"
            },
            "orbiting_body": "Earth"
        }
    ],
    "orbital_data": {
        "orbit_id": "15",
        "orbit_determination_date": "2017-04-06 08:36:56",
        "first_observation_date": "2014-12-10",
        "last_observation_date": "2015-01-10",
        "data_arc_in_days": 31,
        "observations_used": 59,
        "orbit_uncertainty": "6",
        "minimum_orbit_intersection": ".31951",
        "jupiter_tisserand_invariant": "3.473",
        "epoch_osculation": "2459000.5",
        "eccentricity": ".4035204331035784",
        "semi_major_axis": "2.155573340853986",
        "inclination": "25.97333235718775",
        "ascending_node_longitude": "92.23931604553704",
        "orbital_period": "1155.959537499451",
        "perihelion_distance": "1.285755452766058",
        "perihelion_argument": "21.04414889816427",
        "aphelion_distance": "3.025391228941914",
        "perihelion_time": "2459364.263479426462",
        "mean_anomaly": "246.7132902620405",
        "mean_motion": ".3114295858302662",
        "equinox": "J2000",
        "orbit_class": {
            "orbit_class_type": "AMO",
            "orbit_class_description": "Near-Earth asteroid orbits similar to that of 1221 Amor",
            "orbit_class_range": "1.017 AU < q (perihelion) < 1.3 AU"
        }
    },
    "is_sentry_object": false
}